[
  {
    "province_id": "6065e1e9-a924-4777-8ed2-c1f8c469e422",
    "district_id": "9e0f4461-7b9c-4b9d-9718-ba4ef6ebf729",
    "subdistrict_id": "bb391ebf-3633-401a-aac3-19b22fa3b2a1",
    "ward_id": "754a09b1-7b31-4686-98c6-a071df74d447",
    "zipcode_id": "f77d293e-cfaa-49d6-9c92-b934261f14b7",
    "zipcode": 91560
  },
  {
    "province_id": "45d4a641-ccee-4bcf-bf96-852c654989bb",
    "district_id": "b85654cd-017b-4bc9-bc7f-060c98dbeb79",
    "subdistrict_id": "7cf83bd9-742a-4d05-a400-83eb32efb2c2",
    "ward_id": "3ecda6bc-b0b5-4690-871b-a276fb9d4a0c",
    "zipcode_id": "973dc53a-49ec-4f09-9688-e8de3b3507c3",
    "zipcode": 31452
  },
  {
    "province_id": "e13c585e-31cf-4807-9352-8948d2ba2e94",
    "district_id": "bb15ba9d-6f1b-4ac4-b658-6a2fb799a700",
    "subdistrict_id": "4b326dec-53ef-41e4-8a03-7695606ee7ed",
    "ward_id": "71526a3b-be6f-4a51-9b7d-d479cc9d99f1",
    "zipcode_id": "f57558b7-b5dc-4ea7-a7f1-e757ac07d79d",
    "zipcode": 23768
  },
  {
    "province_id": "9ad235b1-eb40-4c95-a549-65659285c7a1",
    "district_id": "febbf5a9-cb80-45b4-95b2-75998bf997c1",
    "subdistrict_id": "5d94fb3b-fafa-486b-894a-ad04d36adfd4",
    "ward_id": "7001fb29-c526-4508-a0ff-bace42e46a31",
    "zipcode_id": "ddab1e74-c986-4340-9f1a-c2c61298e95e",
    "zipcode": 42396
  },
  {
    "province_id": "b0a44967-fd12-451c-b861-ea6f3ec9b47e",
    "district_id": "c7e7860b-6056-45d1-91b2-7a082067cedd",
    "subdistrict_id": "a547f1ba-62a7-4d0d-a814-b60782c2e1ea",
    "ward_id": "e129cd5d-5a58-40e3-8861-ee0d396521c8",
    "zipcode_id": "2926c3c4-4e28-4931-91b5-275288ea0b57",
    "zipcode": 90661
  },
  {
    "province_id": "715e36a7-a1db-4220-9302-036964105feb",
    "district_id": "99fdeaee-9e72-47e0-a2cc-d6a381932505",
    "subdistrict_id": "fe480cd7-2a2e-4b80-ade7-dc6dc326b4ad",
    "ward_id": "92209704-feb0-4e5b-bd8e-d81d97b9205c",
    "zipcode_id": "5ce137b2-4b20-42df-8550-88b3a0d4bdc2",
    "zipcode": 34787
  },
  {
    "province_id": "09d2c834-889f-49a8-8713-1858afda4936",
    "district_id": "fb6323dc-54ef-4b14-bb96-551980bdef24",
    "subdistrict_id": "08c17844-4f84-4439-8b94-541a63cfa66a",
    "ward_id": "75fca822-285e-4a52-9e18-71566ad9b110",
    "zipcode_id": "9d426d15-38f3-40e3-9a61-4cff0317e05c",
    "zipcode": 63372
  },
  {
    "province_id": "09d2c834-889f-49a8-8713-1858afda4936",
    "district_id": "2cc428e7-114c-413c-ae49-79206f00bd25",
    "subdistrict_id": "44b1519b-835e-4221-afa8-81ad2424de19",
    "ward_id": "1d105465-0de5-49d6-b779-8931ebbb73e5",
    "zipcode_id": "dc438bd6-0f66-4fe6-943c-42abb5d689d4",
    "zipcode": 64293
  },
  {
    "province_id": "b2f0075b-74d2-4378-8704-2ed9511e153c",
    "district_id": "de69d363-26b5-4201-9360-57b772aba488",
    "subdistrict_id": "a7ec6f87-4078-423b-a648-65524d9c38ec",
    "ward_id": "44e0b8c9-05a1-438e-8018-18f52628814b",
    "zipcode_id": "93e6a7c9-81ce-4a18-96e4-c6c0d7e17b22",
    "zipcode": 93355
  },
  {
    "province_id": "1486af55-55b9-4253-aa8c-4d04dc6b9375",
    "district_id": "108981e9-58c3-4eca-8893-be558356276a",
    "subdistrict_id": "5469e50f-9e8c-4b01-9002-b7d0bef53ca4",
    "ward_id": "ce9db561-3040-4a13-958b-ed5c6dec98b5",
    "zipcode_id": "1b15b406-01a6-4e96-ba2c-fa129b14656a",
    "zipcode": 99367
  },
  {
    "province_id": "715e36a7-a1db-4220-9302-036964105feb",
    "district_id": "0cbc7c62-1d2d-4751-a5be-08295b3e64a6",
    "subdistrict_id": "4c4d7898-ac75-4df0-88a7-80707ec105cd",
    "ward_id": "b7b05590-0e8a-4b9e-ac39-9845d4c26436",
    "zipcode_id": "89efbae2-448a-4adf-ae12-176a23269998",
    "zipcode": 34761
  },
  {
    "province_id": "224fabdb-a0df-473f-b41d-6b8f8686c3e7",
    "district_id": "e8d1dd17-7456-429b-ac29-13405c66ebf5",
    "subdistrict_id": "3d61964a-6fee-4d05-895c-ee89466aac88",
    "ward_id": "ec304291-1ce5-49fc-b3a1-36e5b3c93036",
    "zipcode_id": "374b052b-34bd-4041-a26d-990f6ad75f3f",
    "zipcode": 71554
  },
  {
    "province_id": "abdd70a8-6def-42b2-b55d-9c95788bb732",
    "district_id": "92367491-7196-4b52-b4b3-6b85643cd510",
    "subdistrict_id": "c6cf32d7-9486-408d-aaad-c09f834ff8f9",
    "ward_id": "1446cad4-c520-49f7-a7cb-3dddf1b9970d",
    "zipcode_id": "cec5ddcc-a110-43cc-8ff0-59fe6e16be49",
    "zipcode": 20995
  },
  {
    "province_id": "715e36a7-a1db-4220-9302-036964105feb",
    "district_id": "c281413e-4846-415f-bcb8-b4e65e11b4de",
    "subdistrict_id": "dc437ed9-aae5-4f32-8ad7-b5ab7bd1882c",
    "ward_id": "222a64e4-889b-436b-b021-ec710139a64d",
    "zipcode_id": "db708253-c8b0-4905-a893-b664e3a3495f",
    "zipcode": 35366
  },
  {
    "province_id": "e13c585e-31cf-4807-9352-8948d2ba2e94",
    "district_id": "1fb5988c-27c8-4794-8e09-13fc631983cf",
    "subdistrict_id": "0ddedb39-9f8b-4037-befe-e4bcd22ad9eb",
    "ward_id": "88184331-6b40-444e-8668-e8bdb0ea4c6f",
    "zipcode_id": "422132eb-1ad6-4b2c-8437-7a5a56893fcf",
    "zipcode": 24394
  },
  {
    "province_id": "d8e15fd4-4887-4d7c-b3f7-439df754ec6e",
    "district_id": "ebaf7360-3d78-4fe7-8358-c06df13547ea",
    "subdistrict_id": "57858397-3686-4130-bb78-821b0e0f26ee",
    "ward_id": "072a6690-9dcb-45df-b795-3a4cca858258",
    "zipcode_id": "0353c411-c00b-4b93-87ff-a2c9c7825500",
    "zipcode": 50663
  },
  {
    "province_id": "09d2c834-889f-49a8-8713-1858afda4936",
    "district_id": "16b24835-9ee7-4763-a671-c64105677a51",
    "subdistrict_id": "2c94de8f-7b21-4b3a-a331-c5ea2bf98d1c",
    "ward_id": "16261fb5-0afd-4112-8f16-2ef25effa669",
    "zipcode_id": "e50168d5-c679-47bd-bfd2-32869cf9bdb2",
    "zipcode": 67292
  },
  {
    "province_id": "e13c585e-31cf-4807-9352-8948d2ba2e94",
    "district_id": "0bf07aa7-9044-41a9-bfd0-f857a71694f3",
    "subdistrict_id": "d9a37c33-7080-4412-866b-cbc40dc055c2",
    "ward_id": "ae17c26e-e865-451d-9544-f3b4d5be2d65",
    "zipcode_id": "66d31ac8-504e-4065-8301-9592fefb714f",
    "zipcode": 24151
  },
  {
    "province_id": "224fabdb-a0df-473f-b41d-6b8f8686c3e7",
    "district_id": "cbdc5fbe-6954-4d39-bb63-763a9557d87b",
    "subdistrict_id": "0aa24b5e-243a-4b49-9b50-2ade45dfb04a",
    "ward_id": "168000ec-eac0-4b85-abdf-878de1837b1f",
    "zipcode_id": "9b09a54c-674e-49f0-ab0f-f2e422b08fe2",
    "zipcode": 71456
  },
  {
    "province_id": "b2f0075b-74d2-4378-8704-2ed9511e153c",
    "district_id": "37c2703e-6754-4a8e-a64e-e2f5fd49e4ed",
    "subdistrict_id": "631ae4f2-ebf8-4683-96f2-48f042ad8fbf",
    "ward_id": "257dcc25-811a-4596-b0e0-5990affec52d",
    "zipcode_id": "6bd705c8-c896-4e91-85ac-4255d1b9e858",
    "zipcode": 93758
  },
  {
    "province_id": "d52de6e4-8167-4b38-8114-7ad8d0313ed7",
    "district_id": "db87e958-e436-47fa-9bf7-07d9ab01b891",
    "subdistrict_id": "79727545-6d0a-4531-9045-5b11feac72c2",
    "ward_id": "cf06aaf7-f243-4f30-88a6-aebff4761cf0",
    "zipcode_id": "2073fecf-3747-45a8-84c5-7db8c9c08c7f",
    "zipcode": 45182
  },
  {
    "province_id": "d411626f-c8f6-4f7d-ba9b-650120f9a9ed",
    "district_id": "57f30d94-d40f-4c2e-866f-fd79a9344119",
    "subdistrict_id": "f90dcb37-f759-4167-9ed7-82195903454c",
    "ward_id": "55d1f636-b17b-49af-bfe4-ad375fe45a1c",
    "zipcode_id": "9d44f62f-df18-4dc9-b107-76dd1fc40b33",
    "zipcode": 85683
  },
  {
    "province_id": "173e736c-849c-479d-b066-a001a3379e6e",
    "district_id": "1b7f90b9-e79d-48c4-8f1a-b45e0a4f55d3",
    "subdistrict_id": "5f8553ed-1311-4dda-b915-c59e26000ccb",
    "ward_id": "cc9d6587-4724-45c7-a64f-9c22fd8847f2",
    "zipcode_id": "587a9e13-b7b8-41ed-9d1f-4d47a14d3ad3",
    "zipcode": 98978
  },
  {
    "province_id": "173e736c-849c-479d-b066-a001a3379e6e",
    "district_id": "e0d32d71-f46e-4b54-962c-9cb56780a663",
    "subdistrict_id": "cec6b9f5-5e45-476d-9db5-f927dc68d8a3",
    "ward_id": "4c6bd556-2046-4d3f-9610-2ab4340332f3",
    "zipcode_id": "858383bb-9416-45ec-b69b-99aa08539a09",
    "zipcode": 98963
  },
  {
    "province_id": "d3749c6d-0bec-408f-b3e9-a5d650e85c4e",
    "district_id": "be026459-f505-44c1-9fbc-4ba3af79a234",
    "subdistrict_id": "859970d7-4958-4632-aabb-38902694a3a6",
    "ward_id": "9466026c-178c-4e3c-a084-fdbb226562d8",
    "zipcode_id": "dd015951-e9a0-42b5-9ff8-ae36bd636d20",
    "zipcode": 37176
  },
  {
    "province_id": "abdd70a8-6def-42b2-b55d-9c95788bb732",
    "district_id": "28695b3f-4cd0-425c-96ab-91c6cfabc7b4",
    "subdistrict_id": "4cad8c99-42fa-4af1-9d0c-581ee1739f77",
    "ward_id": "30d02746-d375-4f30-831a-64e18104beec",
    "zipcode_id": "39885a20-1ac1-4c47-8494-02f5607e7d25",
    "zipcode": 22979
  },
  {
    "province_id": "e1558055-b40b-4fef-b7be-f5ccb57ac29c",
    "district_id": "33ebd940-0f38-41e1-8fba-b5f66357cab0",
    "subdistrict_id": "9a084313-dc98-4f9f-9811-4ef7626f8fbe",
    "ward_id": "e4bdcae9-48b5-480d-93ee-b6d36bf77c77",
    "zipcode_id": "a5291ffb-dea3-4963-a196-5f1af871fe43",
    "zipcode": 74280
  },
  {
    "province_id": "abdd70a8-6def-42b2-b55d-9c95788bb732",
    "district_id": "f2bbc67b-e9f0-4277-b2d4-c770c0b3ae56",
    "subdistrict_id": "17c2c65e-cbc1-4b53-ba10-b6db4d9f7975",
    "ward_id": "db9cafc6-3c92-4e43-9aac-a63f5300eb98",
    "zipcode_id": "6b1488d6-d816-4bde-ae32-3f4309b65420",
    "zipcode": 20777
  },
  {
    "province_id": "d52de6e4-8167-4b38-8114-7ad8d0313ed7",
    "district_id": "625a66f9-5eab-443d-9123-f46c60fc9a70",
    "subdistrict_id": "d1417559-6f94-4765-982f-2aa65fa2d474",
    "ward_id": "ae00e9b3-0d4a-4aef-b3ab-20d39df3acda",
    "zipcode_id": "5a4f1157-3065-42d5-add3-7fa0842e4316",
    "zipcode": 41386
  },
  {
    "province_id": "d8e15fd4-4887-4d7c-b3f7-439df754ec6e",
    "district_id": "37dc9b8a-fa5a-41f3-8be5-1b9ca145a33c",
    "subdistrict_id": "44bfe1ce-38d8-43ab-b5f4-6f2f62c02b66",
    "ward_id": "cfc0fa61-74a8-4795-a1fd-fb94eb3fefa9",
    "zipcode_id": "21e86d96-44b5-43a7-9581-343983aa15a6",
    "zipcode": 59219
  },
  {
    "province_id": "7ba6ff9d-95be-4dc0-a48b-debc71d0099c",
    "district_id": "09c19112-6957-4585-9ba4-90599bbf27a1",
    "subdistrict_id": "360f6323-260e-431a-967d-19c3d6bac426",
    "ward_id": "945fbdad-5da9-4cad-8859-764547906bfe",
    "zipcode_id": "a1c519df-f5fb-4202-9b33-39c0a063ee8d",
    "zipcode": 95841
  },
  {
    "province_id": "b0a44967-fd12-451c-b861-ea6f3ec9b47e",
    "district_id": "c7e7860b-6056-45d1-91b2-7a082067cedd",
    "subdistrict_id": "b030922c-0624-4403-8ed3-e4013a35d926",
    "ward_id": "88a4c776-3891-4ef0-ae55-8e661617381e",
    "zipcode_id": "f1fdbc71-e0cd-4574-8d14-84c09354bc51",
    "zipcode": 90672
  },
  {
    "province_id": "09d2c834-889f-49a8-8713-1858afda4936",
    "district_id": "87ca927f-809f-43ec-aa0b-f79d2aa320e8",
    "subdistrict_id": "37aba907-4550-4b47-aad2-720988c6e241",
    "ward_id": "0a30b387-c79c-4461-9baf-f54cb85fb28a",
    "zipcode_id": "f1c9d6e8-8d42-438f-b08f-33f45d385d28",
    "zipcode": 67229
  },
  {
    "province_id": "09d2c834-889f-49a8-8713-1858afda4936",
    "district_id": "5ec08c4e-4244-40a5-8d46-1142d19c7045",
    "subdistrict_id": "982b6005-d3b3-4bcf-a246-ab42f3d88ddd",
    "ward_id": "24f94cc9-9a22-454f-8718-78494f6e7e82",
    "zipcode_id": "1b41784d-3122-4c49-aa1f-f1722eaed621",
    "zipcode": 68162
  },
  {
    "province_id": "06ce7a6a-3bc1-401a-bd5f-0198f1b9d5e1",
    "district_id": "9c5219fe-7389-4137-b288-3305adfbff36",
    "subdistrict_id": "d2563fd4-8ddd-46cd-a2ce-84a507c622d3",
    "ward_id": "8bd3d2f4-5cf8-4116-a647-264bc934586d",
    "zipcode_id": "32ce1605-be28-479a-850f-e7881c31d8b3",
    "zipcode": 78571
  },
  {
    "province_id": "d411626f-c8f6-4f7d-ba9b-650120f9a9ed",
    "district_id": "b8be25f2-0880-4844-99c1-cf07ffa2f8f3",
    "subdistrict_id": "f4c1c3c9-9133-4340-bc50-8dbde7e7c87e",
    "ward_id": "f384dda3-2154-48dd-927a-f0b2d07a8dd2",
    "zipcode_id": "99ea2f2c-d464-4ea1-8672-80537ea8b5fc",
    "zipcode": 86264
  },
  {
    "province_id": "d8e15fd4-4887-4d7c-b3f7-439df754ec6e",
    "district_id": "473d8283-bfa6-488b-9d66-9ae7d12fb5c6",
    "subdistrict_id": "58ae9204-afcb-4785-9ce0-f1abc0d26a95",
    "ward_id": "0c2a4746-05a5-4d5e-afc6-784ad434df60",
    "zipcode_id": "632fc2c2-2757-478e-a9c1-40714bcc8b60",
    "zipcode": 53462
  },
  {
    "province_id": "09d2c834-889f-49a8-8713-1858afda4936",
    "district_id": "1330f855-7a93-4818-bf61-0443036e5499",
    "subdistrict_id": "ae8223e6-52b9-49d5-acbe-ff2828d3385e",
    "ward_id": "b6fde6cf-f95a-4067-bb9b-8ba2d5a728b5",
    "zipcode_id": "f991c4a7-fba6-4eb7-b0ca-e85273af096e",
    "zipcode": 62271
  },
  {
    "province_id": "abdd70a8-6def-42b2-b55d-9c95788bb732",
    "district_id": "9f78ea99-ea49-4e61-892f-e925bf56114b",
    "subdistrict_id": "9a943f35-9881-4cb1-a064-66a4f5721fd6",
    "ward_id": "8afbbed4-4c8b-401c-be48-582520624cda",
    "zipcode_id": "f95264d1-dca3-4b13-8a41-026f233862f0",
    "zipcode": 22731
  },
  {
    "province_id": "516f0dbd-cc49-4c7d-b413-8bdd94b26ed4",
    "district_id": "344334a3-f8b0-4bdb-b4d8-64cba7822e26",
    "subdistrict_id": "7f35d892-aeda-4fb1-a03d-f1f0e2ffde3d",
    "ward_id": "fdc63fc0-a4c4-478f-b6a6-f9f530f68cc2",
    "zipcode_id": "331832c3-83b0-4866-93c1-899792fe8684",
    "zipcode": 98438
  },
  {
    "province_id": "d8e15fd4-4887-4d7c-b3f7-439df754ec6e",
    "district_id": "6bde770e-465f-4946-9150-f7f6b10864b5",
    "subdistrict_id": "3c9baac1-3239-478f-91bd-689c4fa3326c",
    "ward_id": "b8052d8b-c7c8-4610-af8f-1dd396c4a909",
    "zipcode_id": "0ba1fd33-d142-4197-9458-27b90041c237",
    "zipcode": 51161
  },
  {
    "province_id": "d8e15fd4-4887-4d7c-b3f7-439df754ec6e",
    "district_id": "687f314e-6037-469e-b1d9-460d0ad38d87",
    "subdistrict_id": "525da6f1-934a-4136-9c02-dfa9d06b7a28",
    "ward_id": "ca224e87-53fa-4dc7-846e-148ff98a05e9",
    "zipcode_id": "6b14c7b2-c849-4d88-911b-927ebbf76aaa",
    "zipcode": 51274
  },
  {
    "province_id": "09d2c834-889f-49a8-8713-1858afda4936",
    "district_id": "3c68fa2e-19bd-4cef-a8ae-24573f823984",
    "subdistrict_id": "4dedf87a-10fe-4059-afc1-f9d607c82942",
    "ward_id": "8d15623b-ab04-4e5e-b6d6-dbce37d33d05",
    "zipcode_id": "955bd057-8753-4a9d-87bd-97982051b410",
    "zipcode": 63472
  },
  {
    "province_id": "b0a44967-fd12-451c-b861-ea6f3ec9b47e",
    "district_id": "86b4d9e9-3726-4064-842a-ee486ae99e4e",
    "subdistrict_id": "ab88eeac-7ab2-4795-84b0-24ece73f4696",
    "ward_id": "284af65f-d3dc-427a-82a9-21486f18f5c2",
    "zipcode_id": "cf281f8b-af45-4c22-af78-2383c34bceda",
    "zipcode": 90225
  },
  {
    "province_id": "d52de6e4-8167-4b38-8114-7ad8d0313ed7",
    "district_id": "6d7eb208-4b04-4d07-aec2-cff424fd40ea",
    "subdistrict_id": "1f67e6f9-7526-4100-8552-a0a7d042d517",
    "ward_id": "79675b3a-5023-4628-8cdf-231fbb1f5155",
    "zipcode_id": "6310a0e1-087c-4ed2-b151-8e38b96f6697",
    "zipcode": 46219
  },
  {
    "province_id": "09d2c834-889f-49a8-8713-1858afda4936",
    "district_id": "a3f0892d-cb6d-4887-a1d9-09a913afc0d2",
    "subdistrict_id": "41a3a265-e361-4b40-b515-f3e28018f00a",
    "ward_id": "15387820-d9f4-4dd5-8b04-338fc3c19f28",
    "zipcode_id": "c80ba978-da6f-4e69-9406-b17970524dc9",
    "zipcode": 65170
  },
  {
    "province_id": "b0a44967-fd12-451c-b861-ea6f3ec9b47e",
    "district_id": "86b4d9e9-3726-4064-842a-ee486ae99e4e",
    "subdistrict_id": "cfb7c941-1058-4efe-b8a3-feab0665e5a9",
    "ward_id": "19f5b01c-faa6-4cda-85ee-1c9d0fad726a",
    "zipcode_id": "a7fff3cd-deb6-45d3-bc57-f7333d7fa583",
    "zipcode": 92153
  },
  {
    "province_id": "224fabdb-a0df-473f-b41d-6b8f8686c3e7",
    "district_id": "21beff3a-0d3a-4bcd-8090-0d0e3ad86992",
    "subdistrict_id": "4ed9828f-4ddf-46eb-a413-7bcdb144ceb2",
    "ward_id": "8cd02049-d20b-4a9e-9417-a032fca6bbd9",
    "zipcode_id": "2e4f07ba-c9a0-47a4-8e0e-b406b22a9cb4",
    "zipcode": 72152
  },
  {
    "province_id": "45d4a641-ccee-4bcf-bf96-852c654989bb",
    "district_id": "411ec70c-508f-4d8f-8d0e-72ca5b6aa1f5",
    "subdistrict_id": "0848f497-1dbd-4351-b40c-ca00b67d9e76",
    "ward_id": "4c7bfa41-e046-4c37-ad37-57e80c3cf957",
    "zipcode_id": "823c68d8-4916-48e6-9570-dd888f9cfd1d",
    "zipcode": 30757
  },
  {
    "province_id": "d3749c6d-0bec-408f-b3e9-a5d650e85c4e",
    "district_id": "6820c22a-1847-40a9-b6fa-96dac85ac4e7",
    "subdistrict_id": "aa74e960-604d-447b-9bea-2d10e557b646",
    "ward_id": "97ca01fa-fd3f-4cca-a106-f5cba33c53ea",
    "zipcode_id": "5b12ccdc-3d91-456e-80a2-89420d9904aa",
    "zipcode": 37363
  }
]